# From MPC115884
P/2019 A8 (PANSTARRS),e,2.1822,113.8149,65.7487,4.308681,0.1102015,0.23318501,204.2524,07/18.0/2023,2000,g 16.0,4.0
# From MPC118842
C/2019 A9 (PANSTARRS),e,84.2808,278.4185,237.9159,39.13671,0.0040256,0.96344765,5.8492,07/18.0/2023,2000,g 15.0,4.0
# From MPEC 2022-L66
C/2019 B1 (Africano),e,123.4253,290.3523,174.7670,137.3592,0.0006122,0.98836184,0.0000,03/18.4711/2019,2000,g 16.0,4.0
# From MPC115885
P/2019 B2 (Groeller),e,16.9984,175.7446,0.9505,3.917157,0.1271299,0.35948915,192.4468,07/18.0/2023,2000,g 14.5,4.0
# From MPEC 2023-HD1
C/2019 B3 (PANSTARRS),e,66.5407,358.4313,263.9701,19298,0.0000004,0.99964630,0.0000,01/20.2928/2021,2000,g  9.4,4.0
# From MPEC 2021-P47
C/2019 C1 (ATLAS),e,36.0517,212.3925,319.0608,644.0209,0.0000603,0.98979068,0.0000,05/04.2010/2020,2000,g 10.0,4.0
# From MPEC 2022-O08
C/2019 D1 (Flewelling),e,34.0038,231.6556,70.6992,141.9131,0.0005830,0.98881783,0.0000,05/10.9687/2019,2000,g 13.0,4.0
# From MPEC 2023-KD6
C/2019 E3 (ATLAS),e,84.2974,347.2418,280.6906,15147,0.0000005,0.99931912,0.0000,11/15.0785/2023,2000,g  2.5,4.0
# From MPEC 2023-CD7
C/2019 F1 (ATLAS-Africano),h,06/22.8431/2021,54.2343,38.6643,251.3214,1.002642,3.603997,2000,5.5,4.0
# From MPEC 2021-P47
C/2019 F2 (ATLAS),e,19.2821,175.4344,11.6399,16.61482,0.0145533,0.86479760,20.5098,07/18.0/2023,2000,g 12.0,4.0
# From MPEC 2021-P47
A/2019 G2,e,159.2148,208.1617,82.6070,428.8358,0.0001110,0.99464967,0.0000,12/08.3324/2019,2000,g 16.5,2.0
# From MPEC 2022-VC5
A/2019 G3,e,156.8058,49.9024,161.9002,17.19855,0.0138187,0.83449234,23.3048,07/18.0/2023,2000,g 17.1,2.0
# From MPEC 2022-P82
C/2019 G4 (PANSTARRS),h,09/15.5986/2018,138.3457,130.4476,287.7454,1.001539,5.847245,2000,9.5,4.0
# From MPC114607
P/2019 GG21 (PANSTARRS),e,6.0866,340.5550,208.5998,7.468859,0.0482862,0.47181905,73.8788,07/18.0/2023,2000,g 12.0,4.0
# From MPEC 2022-M21
C/2019 H1 (NEOWISE),e,104.4405,269.2772,19.3317,245.7746,0.0002558,0.99249533,0.0000,04/27.9415/2019,2000,g 15.5,4.0
# From MPEC 2023-A50
C/2019 J1 (Lemmon),e,24.5384,98.1689,167.7299,68.19230,0.0017503,0.96355399,2.7347,07/18.0/2023,2000,g 12.0,4.0
# From MPEC 2021-R75
C/2019 J2 (Palomar),e,105.2347,25.5628,98.6789,162.0655,0.0004777,0.98938241,0.0000,07/20.4977/2019,2000,g 13.0,4.0
# From MPC117071
C/2019 J3 (ATLAS),h,08/02.4511/2019,131.3441,270.6122,16.6017,1.000601,2.370152,2000,13.5,4.0
# From MPEC 2022-M21
C/2019 JU6 (ATLAS),h,06/02.0296/2019,148.3319,21.7668,94.9867,1.000069,2.043338,2000,14.5,4.0
# From MPEC 2022-O08
C/2019 K1 (ATLAS),e,87.0465,73.3327,265.7268,9100,0.0000011,0.99977865,0.0000,02/12.6050/2020,2000,g 10.0,4.0
# From MPC119997
C/2019 K4 (Ye),e,105.2971,180.1557,139.8974,1400,0.0000188,0.99837864,0.0000,06/15.5387/2019,2000,g 12.5,4.0
# From MPEC 2021-P47
C/2019 K5 (Young),e,15.3173,177.1368,175.1520,168.7170,0.0004497,0.98788834,0.0000,06/22.9340/2019,2000,g 13.0,4.0
# From MPEC 2021-P47
C/2019 K6 (PANSTARRS),e,132.3806,42.9984,187.5748,1472,0.0000175,0.99733380,0.0000,05/19.9221/2020,2000,g 11.5,4.0
# From MPEC 2023-M14
C/2019 K7 (Smith),h,06/17.6366/2020,103.5282,307.9720,27.4067,1.000965,4.478404,2000,6.0,4.0
# From MPEC 2021-R75
C/2019 K8 (ATLAS),e,93.1301,291.0246,85.3778,2581,0.0000075,0.99876292,0.0000,07/21.7227/2019,2000,g 11.5,4.0
# From MPEC 2023-A50
C/2019 L1 (PANSTARRS),e,9.9786,254.4299,50.0558,9.839327,0.0319342,0.70524754,45.9081,07/18.0/2023,2000,g 13.5,4.0
# From MPC115886
C/2019 L2 (NEOWISE),e,152.2098,12.5490,18.8492,25.04948,0.0078615,0.93507994,12.3264,07/18.0/2023,2000,g 16.0,4.0
# From MPEC 2023-HD1
P/2019 LD2 (ATLAS),e,11.6173,179.5663,119.5762,5.215002,0.0827603,0.12659964,102.0366,07/18.0/2023,2000,g 12.0,4.0
# From MPEC 2023-N16
C/2019 L3 (ATLAS),h,01/09.6899/2022,48.3480,290.7718,171.6273,1.002186,3.554495,2000,4.5,4.0
# From MPC118095
C/2019 LB7 (Kleyna),e,164.2912,3.8916,336.5919,34.71328,0.0048190,0.92820085,7.5886,07/18.0/2023,2000,g 17.0,4.0
# From MPEC 2022-O08
P/2019 M2 (ATLAS),e,12.2696,307.6159,332.5457,3.029032,0.1869599,0.64736971,278.0827,07/18.0/2023,2000,g 21.2,4.0
# From MPC118095
C/2019 M3 (ATLAS),e,99.5241,154.9378,87.8992,6040,0.0000021,0.99959890,0.0000,12/31.7976/2018,2000,g 12.2,4.0
# From MPEC 2023-JA2
C/2019 M4 (TESS),h,09/12.3428/2019,65.6819,52.6462,260.3739,1.003653,9.188320,2000,5.0,4.0
# From MPEC 2023-C45
C/2019 N1 (ATLAS),e,82.4325,13.5713,193.4103,1502,0.0000169,0.99886483,0.0000,12/01.2207/2020,2000,g  7.5,4.0
# From MPEC 2023-CD8
A/2019 N2,e,89.3791,276.1353,347.1904,1601,0.0000154,0.99878354,0.0000,08/22.7365/2019,2000,g 12.5,2.0
# From MPEC 2022-A21
C/2019 NJ3 (Lemmon),h,10/22.9693/2020,99.4126,142.4726,246.9132,1.002543,4.362784,2000,9.0,4.0
# From MPEC 2023-N01
A/2019 O2,e,93.3096,48.2603,129.6327,58.00216,0.0022312,0.83306188,0.2274,07/18.0/2023,2000,g  9.5,2.0
# From MPEC 2023-N01
C/2019 O3 (Palomar),h,03/09.6380/2021,89.8176,300.4264,60.1315,1.004410,8.821171,2000,3.5,4.0
# From MPEC 2021-P47
A/2019 O4,e,115.0856,354.9104,61.9054,33.31407,0.0051258,0.89055967,6.4228,07/18.0/2023,2000,g 15.5,2.0
# From MPEC 2023-A50
C/2019 Q1 (Lemmon),h,07/20.8459/2020,155.7303,42.4584,56.2056,1.000938,5.003517,2000,8.5,4.0
# From MPC117072
A/2019 Q2,e,159.0275,188.0145,176.4059,57.98586,0.0022321,0.97821455,0.0000,07/22.1635/2019,2000,g 18.0,2.0
# From MPC117072
C/2019 Q3 (PANSTARRS),h,08/21.2677/2018,65.5425,151.3453,152.7998,1.002431,7.267385,2000,8.5,4.0
# From MPC117072
P/2019 S2 (PANSTARRS),e,10.4652,93.1379,217.1600,4.743290,0.0954079,0.20556159,153.3605,07/18.0/2023,2000,g 13.5,4.0
# From MPEC 2022-CN4
P/2019 S3 (PANSTARRS),e,8.6924,150.1478,213.0658,3.415346,0.1561536,0.47116208,221.8419,07/18.0/2023,2000,g 18.3,4.0
# From MPEC 2021-S45
C/2019 S4 (Lemmon),e,92.0880,63.1485,71.3785,235.5796,0.0002726,0.98538781,0.0000,04/08.1323/2020,2000,g 11.0,4.0
# From MPEC 2023-N01
A/2019 T1,e,120.8743,6.9450,91.0700,38.78155,0.0040810,0.88960836,3.7306,07/18.0/2023,2000,g 13.0,2.0
# From MPEC 2023-N01
C/2019 T2 (Lemmon),e,111.4684,155.6514,239.4317,4457,0.0000033,0.99940635,0.0000,04/22.5648/2021,2000,g  9.0,4.0
# From MPEC 2023-N01
C/2019 T3 (ATLAS),e,121.8402,139.5324,112.4538,3557,0.0000046,0.99832662,0.0000,03/04.3138/2021,2000,g  6.8,4.0
# From MPEC 2023-N16
C/2019 T4 (ATLAS),e,53.6319,199.9391,351.1628,941.4452,0.0000341,0.99549445,0.0000,06/08.9003/2022,2000,g  5.0,4.0
# From MPEC 2021-P47
P/2019 T5 (ATLAS),e,33.4954,247.6212,189.5692,7.998030,0.0435742,0.80959537,63.0096,07/18.0/2023,2000,g 15.0,4.0
# From MPEC 2021-P47
P/2019 T6 (PANSTARRS),e,18.7035,71.2156,329.0126,5.438223,0.0777175,0.62307447,104.7103,07/18.0/2023,2000,g 15.5,4.0
# From MPC118096
P/2019 U4 (PANSTARRS),e,11.7007,200.0009,181.0367,3.520103,0.1492351,0.47602446,208.5221,07/18.0/2023,2000,g 19.0,4.0
# From MPEC 2023-N16
C/2019 U5 (PANSTARRS),h,03/29.8140/2023,113.5190,2.6371,181.4897,1.001381,3.624166,2000,4.5,4.0
# From MPEC 2022-H04
C/2019 U6 (Lemmon),e,60.9743,235.7701,329.5592,334.8723,0.0001608,0.99727358,0.0000,06/18.3805/2020,2000,g 10.0,4.0
# From MPEC 2022-N37
C/2019 V1 (Borisov),e,61.9139,83.1647,51.1610,1545,0.0000162,0.99799728,0.0000,07/16.4644/2020,2000,g 11.0,4.0
# From MPEC 2022-L66
P/2019 V2 (Groeller),e,11.8082,189.1842,335.7300,7.498662,0.0479986,0.33113464,48.1796,07/18.0/2023,2000,g 10.0,4.0
# From MPEC 2023-A50
P/2019 W1 (PANSTARRS),e,23.4756,35.3767,18.7365,4.549074,0.1015827,0.26716126,155.4875,07/18.0/2023,2000,g 12.9,4.0
# From MPEC 2021-P47
P/2019 X1 (Pruyne),e,10.2505,43.6640,36.8138,6.174423,0.0642406,0.30372713,93.5807,07/18.0/2023,2000,g 10.4,4.0
# From MPC119999
C/2019 Y1 (ATLAS),e,73.3604,31.5580,57.9079,86.66232,0.0012217,0.99043788,0.0000,03/16.1175/2020,2000,g 13.7,4.0
# From MPEC 2022-YN2
C/2019 Y4 (ATLAS),e,45.2016,120.6682,177.4525,353.4029,0.0001484,0.99927748,0.0000,05/30.8373/2020,2000,g 11.8,6.0
# From MPEC 2020-L06
C/2019 Y4-A (ATLAS),h,05/30.8654/2020,45.6440,121.0300,177.2862,1.001419,0.253495,2000,11.6,6.0
# From MPEC 2023-J29
C/2019 Y4-B (ATLAS),h,05/30.8427/2020,45.3323,120.7744,177.3966,1.000020,0.254808,2000,12.1,6.0
# From MPEC 2020-L06
C/2019 Y4-C (ATLAS),h,05/30.8194/2020,45.4264,120.7566,177.3196,1.002143,0.254564,2000,12.7,6.0
# From MPEC 2020-L06
C/2019 Y4-D (ATLAS),e,45.4716,121.1302,177.4577,68.41356,0.0017418,0.99628887,0.0000,05/30.9438/2020,2000,g 12.5,6.0
# From MPEC 2023-A50
C/2019 Y5 (PANSTARRS),e,82.7665,51.7550,303.5677,747.8333,0.0000482,0.99342000,0.0000,08/17.8659/2019,2000,g 11.0,4.0
# From MPEC 2023-A50
A/2020 A1,e,149.0367,119.1960,302.4983,25.63208,0.0075950,0.93498243,10.0543,07/18.0/2023,2000,g 18.0,2.0
# From MPEC 2022-YN2
C/2020 A2 (NEOWISE),e,120.6219,286.2928,68.0836,1379,0.0000192,0.99929372,0.0000,01/08.4949/2020,2000,g 13.5,4.0
# From MPEC 2023-A50
C/2020 A3 (ATLAS),h,06/29.0516/2019,146.6658,120.8047,268.3633,1.000787,5.759623,2000,8.0,4.0
# From MPEC 2022-P91
P/2020 A4 (PANSTARRS-Lemmon),e,24.9912,312.3696,144.7738,8.194154,0.0420192,0.65405016,56.0098,07/18.0/2023,2000,g 15.0,4.0
# From MPEC 2020-N08
A/2020 B1,e,18.5209,309.9392,154.7323,51.43543,0.0026718,0.96616240,3.4723,07/18.0/2023,2000,g 21.0,2.0
# From MPEC 2022-N37
C/2020 B3 (Rankin),e,20.7095,185.8449,324.9037,940.7718,0.0000342,0.99645429,0.0000,10/19.4745/2019,2000,g 13.0,4.0
# From MPEC 2023-KD6
P/2020 B4 (Sheppard),e,11.6091,185.9788,342.0561,7.966628,0.0438321,0.19184225,26.5592,07/18.0/2023,2000,g 10.5,4.0
# From MPEC 2023-N16
C/2020 F2 (ATLAS),h,07/14.7548/2022,163.5886,250.2922,48.3234,1.005330,8.816458,2000,4.5,4.0
# From MPEC 2021-O56
C/2020 F3 (NEOWISE),e,129.1294,61.0830,37.3700,361.7390,0.0001433,0.99918239,0.0000,07/03.7713/2020,2000,g  7.5,5.2
# From MPEC 2023-C45
C/2020 F5 (MASTER),e,52.2054,350.4995,310.6807,175.9250,0.0004224,0.97541635,0.0000,03/17.4676/2021,2000,g  6.5,3.2
# From MPEC 2020-L06
C/2020 F6 (PANSTARRS),e,174.5830,207.9071,344.5377,397.5137,0.0001244,0.99118325,0.0000,04/11.6769/2020,2000,g 14.5,2.8
# From MPEC 2023-J95
C/2020 F7 (Lemmon),e,93.9516,321.8676,227.9492,575.9968,0.0000713,0.99074271,0.0000,11/13.7100/2021,2000,g  7.0,4.0
# From MPEC 2023-J29
